FLOCK 4G-8              
1 62613U 25009E   26068.72381419  .00013559  00000+0  50438-3 0  9996
2 62613  97.4045 151.2834 0003050 315.2538  44.8455 15.27623414 63721
STARLINK-35785          
1 67176U 25303P   26067.70032128  .00037067  00000+0  13493-2 0  9998
2 67176  42.9980 316.3187 0001646 260.8630  99.2036 15.27590097 12582
